NORAD_CAT_ID,OBJECT_NAME,OBJECT_TYPE,EPOCH,MEAN_MOTION,ECCENTRICITY,INCLINATION,RA_OF_ASC_NODE,ARG_OF_PERICENTER,MEAN_ANOMALY,BSTAR,MEAN_MOTION_DOT,MEAN_MOTION_DDOT,TLE_LINE0,TLE_LINE1,TLE_LINE2,SEMIMAJOR_AXIS,PERIOD,APOGEE,PERIGEE,DECAYED
55391.0,STARLINK-5077,PAYLOAD,2024-07-24 22:35:53,14.97529753,0.0002983,69.9999,118.7244,270.3297,89.752,-3.1415e-05,-4.59e-06,0.0,0 STARLINK-5077,1 55391U 23014A   24206.94159655 -.00000459  00000-0 -31415-4 0  9999,2 55391  69.9999 118.7244 0002983 270.3297  89.7520 14.97529753 83278,6952.669,96.158,576.608,572.46,0.0
55391.0,STARLINK-5077,PAYLOAD,2024-07-25 03:24:26,14.97541851,0.0002753,70.0008,118.2206,234.3613,125.7289,-0.0001358,-1.68e-05,0.0,0 STARLINK-5077,1 55391U 23014A   24207.14197698 -.00001680  00000-0 -13580-3 0  9990,2 55391  70.0008 118.2206 0002753 234.3613 125.7289 14.97541851 82367,6952.631,96.158,576.41,572.582,0.0
55391.0,STARLINK-5077,PAYLOAD,2024-07-25 22:38:42,14.9751633,0.0002654,70.001,116.2012,279.5023,80.5835,2.6866e-05,2.22e-06,0.0,0 STARLINK-5077,1 55391U 23014A   24207.94354420  .00000222  00000-0  26866-4 0  9997,2 55391  70.0010 116.2012 0002654 279.5023  80.5835 14.97516330 83426,6952.71,96.159,576.42,572.73,0.0
55391.0,STARLINK-5077,PAYLOAD,2024-07-26 03:27:15,14.97518151,0.0002687,70.0008,115.6959,267.9704,92.1147,5.4193e-05,5.41e-06,0.0,0 STARLINK-5077,1 55391U 23014A   24208.14392926  .00000541  00000-0  54193-4 0  9991,2 55391  70.0008 115.6959 0002687 267.9704  92.1147 14.97518151 82516,6952.705,96.159,576.438,572.701,0.0
55391.0,STARLINK-5077,PAYLOAD,2024-07-26 11:28:10,14.97526184,0.0003048,70.0001,114.8551,271.847,88.234,9.378e-05,1.004e-05,0.0,0 STARLINK-5077,1 55391U 23014A   24208.47790237  .00001004  00000-0  93780-4 0  9994,2 55391  70.0001 114.8551 0003048 271.8470  88.2340 14.97526184 82565,6952.68,96.159,576.664,572.426,0.0
55391.0,STARLINK-5077,PAYLOAD,2024-07-27 22:44:16,14.9753781,0.0002838,69.9996,111.1535,268.6391,91.4442,-0.00025651,-3.09e-05,0.0,0 STARLINK-5077,1 55391U 23014A   24209.94740972 -.00003090  00000-0 -25651-3 0  9998,2 55391  69.9996 111.1535 0002838 268.6391  91.4442 14.97537810 83725,6952.644,96.158,576.482,572.536,0.0
55391.0,STARLINK-5077,PAYLOAD,2024-07-28 03:32:50,14.97514397,0.0003171,69.9996,110.6515,270.3944,89.6851,7.4278e-07,-8.4e-07,0.0,0 STARLINK-5077,1 55391U 23014A   24210.14780827 -.00000084  00000-0  74278-6 0  9996,2 55391  69.9996 110.6515 0003171 270.3944  89.6851 14.97514397 82819,6952.716,96.159,576.786,572.377,0.0
55391.0,STARLINK-5077,PAYLOAD,2024-07-28 22:47:04,14.97522613,0.0003028,69.9999,108.633,271.7113,88.3698,-7.5436e-05,-9.74e-06,0.0,0 STARLINK-5077,1 55391U 23014A   24210.94935809 -.00000974  00000-0 -75436-4 0  9990,2 55391  69.9999 108.6330 0003028 271.7113  88.3698 14.97522613 83870,6952.691,96.159,576.661,572.451,0.0
55391.0,STARLINK-5077,PAYLOAD,2024-07-29 03:35:37,14.97517284,0.0002951,70.0,108.1282,271.9302,88.1518,0.00014393,1.59e-05,0.0,0 STARLINK-5077,1 55391U 23014A   24211.14974120  .00001590  00000-0  14393-3 0  9999,2 55391  70.0000 108.1282 0002951 271.9302  88.1518 14.97517284 82969,6952.707,96.159,576.624,572.521,0.0
55391.0,STARLINK-5077,PAYLOAD,2024-07-29 10:00:22,14.97516165,0.0002942,70.0,107.4554,272.1151,87.9671,0.00012124,1.325e-05,0.0,0 STARLINK-5077,1 55391U 23014A   24211.41692764  .00001325  00000-0  12124-3 0  9996,2 55391  70.0000 107.4554 0002942 272.1151  87.9671 14.97516165 83941,6952.711,96.159,576.621,572.53,0.0
55391.0,STARLINK-5077,PAYLOAD,2024-07-29 22:49:52,14.97517629,0.0002958,69.9999,106.1097,272.2591,87.8228,0.00011929,1.302e-05,0.0,0 STARLINK-5077,1 55391U 23014A   24211.95129701  .00001302  00000-0  11929-3 0  9998,2 55391  69.9999 106.1097 0002958 272.2591  87.8228 14.97517629 84022,6952.706,96.159,576.628,572.515,0.0
55391.0,STARLINK-5077,PAYLOAD,2024-07-30 03:38:25,14.97522286,0.0002875,70.0,105.6055,270.827,89.2559,0.00017064,1.902e-05,0.0,0 STARLINK-5077,1 55391U 23014A   24212.15168119  .00001902  00000-0  17064-3 0  9999,2 55391  70.0000 105.6055 0002875 270.8270  89.2559 14.97522286 83119,6952.692,96.159,576.556,572.558,0.0
55391.0,STARLINK-5077,PAYLOAD,2024-07-30 10:03:10,14.97521977,0.0002854,70.0001,104.9328,269.793,90.2902,0.00012583,1.378e-05,0.0,0 STARLINK-5077,1 55391U 23014A   24212.41886652  .00001378  00000-0  12583-3 0  9995,2 55391  70.0001 104.9328 0002854 269.7930  90.2902 14.97521977 84090,6952.693,96.159,576.542,572.573,0.0
55391.0,STARLINK-5077,PAYLOAD,2024-07-30 22:52:38,14.97530072,0.000285,70.0,103.5872,269.0231,91.0601,0.0001278,1.402e-05,0.0,0 STARLINK-5077,1 55391U 23014A   24212.95322839  .00001402  00000-0  12780-3 0  9993,2 55391  70.0000 103.5872 0002850 269.0231  91.0601 14.97530072 84171,6952.668,96.158,576.514,572.551,0.0
55391.0,STARLINK-5077,PAYLOAD,2024-07-31 10:05:57,14.97528304,0.0002846,69.9998,102.4095,271.5444,88.5388,-0.00010656,-1.337e-05,0.0,0 STARLINK-5077,1 55391U 23014A   24213.42080539 -.00001337  00000-0 -10656-3 0  9993,2 55391  69.9998 102.4095 0002846 271.5444  88.5388 14.97528304 83300,6952.673,96.158,576.517,572.559,0.0
55391.0,STARLINK-5077,PAYLOAD,2024-07-31 21:19:16,14.97514178,0.0003066,69.9999,101.2322,267.8799,92.2008,-8.8295e-05,-1.124e-05,0.0,0 STARLINK-5077,1 55391U 23014A   24213.88838704 -.00001124  00000-0 -88295-4 0  9997,2 55391  69.9999 101.2322 0003066 267.8799  92.2008 14.97514178 83379,6952.717,96.159,576.714,572.45,0.0
55391.0,STARLINK-5077,PAYLOAD,2024-07-31 22:55:27,14.97516485,0.0003019,69.9998,101.0637,268.1705,91.9108,-9.2653e-05,-1.175e-05,0.0,0 STARLINK-5077,1 55391U 23014A   24213.95518203 -.00001175  00000-0 -92653-4 0  9993,2 55391  69.9998 101.0637 0003019 268.1705  91.9108 14.97516485 84320,6952.71,96.159,576.674,572.476,0.0
55391.0,STARLINK-5077,PAYLOAD,2024-08-01 10:08:45,14.97526756,0.0003089,69.9996,99.8838,262.0169,98.0639,-2.1658e-05,-3.45e-06,0.0,0 STARLINK-5077,1 55391U 23014A   24214.42274500 -.00000345  00000-0 -21658-4 0  9990,2 55391  69.9996  99.8838 0003089 262.0169  98.0639 14.97526756 84395,6952.678,96.159,576.691,572.395,0.0
55391.0,STARLINK-5077,PAYLOAD,2024-08-01 21:22:02,14.97534193,0.0003012,69.9999,98.7089,269.5178,90.5635,8.3946e-05,8.89e-06,0.0,0 STARLINK-5077,1 55391U 23014A   24214.89030875  .00000889  00000-0  83946-4 0  9995,2 55391  69.9999  98.7089 0003012 269.5178  90.5635 14.97534193 83523,6952.655,96.158,576.614,572.426,0.0
55391.0,STARLINK-5077,PAYLOAD,2024-08-01 22:58:13,14.97537824,0.0003226,69.9995,98.5397,267.2795,92.7994,0.00010046,1.082e-05,0.0,0 STARLINK-5077,1 55391U 23014A   24214.95710115  .00001082  00000-0  10046-3 0  9990,2 55391  69.9995  98.5397 0003226 267.2795  92.7994 14.97537824 84477,6952.644,96.158,576.752,572.266,0.0
55391.0,STARLINK-5077,PAYLOAD,2024-08-02 15:00:05,14.97522085,0.0002816,70.0012,96.8609,280.573,79.5112,0.00024574,2.78e-05,0.0,0 STARLINK-5077,1 55391U 23014A   24215.62506817  .00002780  00000-0  24574-3 0  9994,2 55391  70.0012  96.8609 0002816 280.5730  79.5112 14.97522085 84577,6952.692,96.159,576.515,572.6,0.0
55391.0,STARLINK-5077,PAYLOAD,2024-08-02 19:48:39,14.9751578,0.0003117,69.9971,96.3503,261.2376,98.843,0.00013059,1.434e-05,0.0,0 STARLINK-5077,1 55391U 23014A   24215.82546149  .00001434  00000-0  13059-3 0  9999,2 55391  69.9971  96.3503 0003117 261.2376  98.8430 14.97515780 83663,6952.712,96.159,576.744,572.41,0.0
55391.0,STARLINK-5077,PAYLOAD,2024-08-02 23:01:02,14.97515208,0.0003231,69.9994,96.0171,267.9999,92.079,5.4124e-05,5.4e-06,0.0,0 STARLINK-5077,1 55391U 23014A   24215.95905677  .00000540  00000-0  54124-4 0  9994,2 55391  69.9994  96.0171 0003231 267.9999  92.0790 14.97515208 84624,6952.714,96.159,576.825,572.332,0.0
55391.0,STARLINK-5077,PAYLOAD,2024-08-03 15:02:53,14.97527699,0.0003266,69.9993,94.3351,267.5263,92.5522,-2.8274e-05,-4.23e-06,0.0,0 STARLINK-5077,1 55391U 23014A   24216.62701167 -.00000423  00000-0 -28274-4 0  9996,2 55391  69.9993  94.3351 0003266 267.5263  92.5522 14.97527699 84728,6952.675,96.158,576.811,572.269,0.0
55391.0,STARLINK-5077,PAYLOAD,2024-08-03 19:51:27,14.97529259,0.0003303,69.9992,93.8304,267.6123,92.4658,3.6747e-06,-4.9e-07,0.0,0 STARLINK-5077,1 55391U 23014A   24216.82739739 -.00000049  00000-0  36747-5 0  9992,2 55391  69.9992  93.8304 0003303 267.6123  92.4658 14.97529259 83819,6952.67,96.158,576.832,572.239,0.0
55391.0,STARLINK-5077,PAYLOAD,2024-08-03 21:27:38,14.97530341,0.0003276,69.9993,93.6623,267.5177,92.5606,1.4898e-05,8.2e-07,0.0,0 STARLINK-5077,1 55391U 23014A   24216.89419225  .00000082  00000-0  14898-4 0  9992,2 55391  69.9993  93.6623 0003276 267.5177  92.5606 14.97530341 84762,6952.667,96.158,576.81,572.254,0.0
55391.0,STARLINK-5077,PAYLOAD,2024-08-04 02:16:11,14.975366,0.0003205,69.9993,93.1579,267.3214,92.7578,6.9364e-05,7.19e-06,0.0,0 STARLINK-5077,1 55391U 23014A   24217.09457392  .00000719  00000-0  69364-4 0  9997,2 55391  69.9993  93.1579 0003205 267.3214  92.7578 14.97536600 83852,6952.647,96.158,576.741,572.284,0.0
55391.0,STARLINK-5077,PAYLOAD,2024-08-04 08:40:56,14.97531688,0.0003189,69.9994,92.4847,268.7254,91.3539,-3.4384e-05,-4.94e-06,0.0,0 STARLINK-5077,1 55391U 23014A   24217.36176189 -.00000494  00000-0 -34384-4 0  9995,2 55391  69.9994  92.4847 0003189 268.7254  91.3539 14.97531688 83890,6952.663,96.158,576.745,572.31,0.0
55391.0,STARLINK-5077,PAYLOAD,2024-08-04 21:30:26,14.97511398,0.0003231,69.9995,91.1399,268.1822,91.8966,0.00060208,6.948e-05,0.0,0 STARLINK-5077,1 55391U 23014A   24217.89613504  .00006948  00000-0  60208-3 0  9991,2 55391  69.9995  91.1399 0003231 268.1822  91.8966 14.97511398 83976,6952.726,96.16,576.837,572.344,0.0
55391.0,STARLINK-5077,PAYLOAD,2024-08-04 23:06:36,14.97528084,0.0003055,69.9996,90.9721,265.7509,94.33,0.00027948,3.176e-05,0.0,0 STARLINK-5077,1 55391U 23014A   24217.96292410  .00003176  00000-0  27948-3 0  9992,2 55391  69.9996  90.9721 0003055 265.7509  94.3300 14.97528084 84928,6952.674,96.158,576.663,572.415,0.0
